{
  "type": "FeatureCollection",
  "features": [
    {
      "type": "Feature",
      "properties": {
        "norad_id": 28051,
        "name": "IRS-P6 (RESOURCESAT-1)",
        "group": "resource",
        "lat": -65.84844687073077,
        "lon": -159.68029338635185,
        "alt_km": 789.6163292233923,
        "timestamp": "2025-12-25T07:00:33.699029+00:00",
        "meta_object_name": "IRS-P6 (RESOURCESAT-1)",
        "meta_object_id": "2003-046A",
        "meta_epoch": "2025-12-24T23:43:27.182784",
        "meta_mean_motion": 14.36079111,
        "meta_eccentricity": 0.00648881,
        "meta_inclination": 98.2158,
        "meta_ra_of_asc_node": 38.8266,
        "meta_arg_of_pericenter": 144.108,
        "meta_mean_anomaly": 333.9347,
        "meta_ephemeris_type": 0,
        "meta_classification_type": "U",
        "meta_norad_cat_id": 28051,
        "meta_element_set_no": 999,
        "meta_rev_at_epoch": 15552,
        "meta_bstar": -9.258087e-06,
        "meta_mean_motion_dot": -6.8e-07,
        "meta_mean_motion_ddot": 0,
        "tle_line1": "1 28051U 03046A   25358.98850906 -.00000068  00000+0 -92581-5 0  9992",
        "tle_line2": "2 28051  98.2158  38.8266 0064888 144.1080 333.9347 14.36079111155529"
      },
      "geometry": {
        "type": "Point",
        "coordinates": [
          -159.68029338635185,
          -65.84844687073077
        ]
      }
    },
    {
      "type": "Feature",
      "properties": {
        "norad_id": 28220,
        "name": "SHIYAN-1 (SY-1)",
        "group": "resource",
        "lat": -38.34836217607664,
        "lon": 67.8725732135352,
        "alt_km": 484.5708622744196,
        "timestamp": "2025-12-25T07:00:33.699040+00:00",
        "meta_object_name": "SHIYAN-1 (SY-1)",
        "meta_object_id": "2004-012A",
        "meta_epoch": "2025-12-24T15:27:59.538240",
        "meta_mean_motion": 15.28445805,
        "meta_eccentricity": 0.00051133,
        "meta_inclination": 97.8916,
        "meta_ra_of_asc_node": 60.8865,
        "meta_arg_of_pericenter": 275.1255,
        "meta_mean_anomaly": 84.9399,
        "meta_ephemeris_type": 0,
        "meta_classification_type": "U",
        "meta_norad_cat_id": 28220,
        "meta_element_set_no": 999,
        "meta_rev_at_epoch": 18438,
        "meta_bstar": 0.00051605795,
        "meta_mean_motion_dot": 0.00014225,
        "meta_mean_motion_ddot": 0,
        "tle_line1": "1 28220U 04012A   25358.64443910  .00014225  00000+0  51606-3 0  9999",
        "tle_line2": "2 28220  97.8916  60.8865 0005113 275.1255  84.9399 15.28445805184384"
      },
      "geometry": {
        "type": "Point",
        "coordinates": [
          67.8725732135352,
          -38.34836217607664
        ]
      }
    },
    {
      "type": "Feature",
      "properties": {
        "norad_id": 28376,
        "name": "AURA",
        "group": "resource",
        "lat": -16.26122234639448,
        "lon": 127.1317539304246,
        "alt_km": 695.1572116976358,
        "timestamp": "2025-12-25T07:00:33.699052+00:00",
        "meta_object_name": "AURA",
        "meta_object_id": "2004-026A",
        "meta_epoch": "2025-12-24T20:15:05.051808",
        "meta_mean_motion": 14.60973195,
        "meta_eccentricity": 0.00014315,
        "meta_inclination": 98.3202,
        "meta_ra_of_asc_node": 309.1278,
        "meta_arg_of_pericenter": 90.8782,
        "meta_mean_anomaly": 269.2582,
        "meta_ephemeris_type": 0,
        "meta_classification_type": "U",
        "meta_norad_cat_id": 28376,
        "meta_element_set_no": 999,
        "meta_rev_at_epoch": 14075,
        "meta_bstar": 0.00022235995,
        "meta_mean_motion_dot": 1.042e-05,
        "meta_mean_motion_ddot": 0,
        "tle_line1": "1 28376U 04026A   25358.84380847  .00001042  00000+0  22236-3 0  9997",
        "tle_line2": "2 28376  98.3202 309.1278 0001431  90.8782 269.2582 14.60973195140751"
      },
      "geometry": {
        "type": "Point",
        "coordinates": [
          127.1317539304246,
          -16.26122234639448
        ]
      }
    },
    {
      "type": "Feature",
      "properties": {
        "norad_id": 28649,
        "name": "IRS-P5 (CARTOSAT-1)",
        "group": "resource",
        "lat": -61.10262617563305,
        "lon": 39.0483954856227,
        "alt_km": 603.9304254294375,
        "timestamp": "2025-12-25T07:00:33.699062+00:00",
        "meta_object_name": "IRS-P5 (CARTOSAT-1)",
        "meta_object_id": "2005-017A",
        "meta_epoch": "2025-12-24T20:00:30.342528",
        "meta_mean_motion": 14.90443218,
        "meta_eccentricity": 5.196e-05,
        "meta_inclination": 97.5483,
        "meta_ra_of_asc_node": 24.7102,
        "meta_arg_of_pericenter": 63.0227,
        "meta_mean_anomaly": 297.1045,
        "meta_ephemeris_type": 0,
        "meta_classification_type": "U",
        "meta_norad_cat_id": 28649,
        "meta_element_set_no": 999,
        "meta_rev_at_epoch": 11784,
        "meta_bstar": 0.00016645072,
        "meta_mean_motion_dot": 1.57e-05,
        "meta_mean_motion_ddot": 0,
        "tle_line1": "1 28649U 05017A   25358.83368452  .00001570  00000+0  16645-3 0  9991",
        "tle_line2": "2 28649  97.5483  24.7102 0000519  63.0227 297.1045 14.90443218117843"
      },
      "geometry": {
        "type": "Point",
        "coordinates": [
          39.0483954856227,
          -61.10262617563305
        ]
      }
    },
    {
      "type": "Feature",
      "properties": {
        "norad_id": 28893,
        "name": "SINAH 1",
        "group": "resource",
        "lat": 1.338466657496473,
        "lon": -51.92222356905961,
        "alt_km": 680.8917936064636,
        "timestamp": "2025-12-25T07:00:33.699074+00:00",
        "meta_object_name": "SINAH 1",
        "meta_object_id": "2005-043D",
        "meta_epoch": "2025-12-24T21:59:46.740480",
        "meta_mean_motion": 14.639749,
        "meta_eccentricity": 0.00157259,
        "meta_inclination": 98.261,
        "meta_ra_of_asc_node": 127.5068,
        "meta_arg_of_pericenter": 101.5067,
        "meta_mean_anomaly": 258.7902,
        "meta_ephemeris_type": 0,
        "meta_classification_type": "U",
        "meta_norad_cat_id": 28893,
        "meta_element_set_no": 999,
        "meta_rev_at_epoch": 7502,
        "meta_bstar": 9.7798264e-05,
        "meta_mean_motion_dot": 4.64e-06,
        "meta_mean_motion_ddot": 0,
        "tle_line1": "1 28893U 05043D   25358.91651320  .00000464  00000+0  97798-4 0  9999",
        "tle_line2": "2 28893  98.2610 127.5068 0015725 101.5067 258.7902 14.63974900 75027"
      },
      "geometry": {
        "type": "Point",
        "coordinates": [
          -51.92222356905961,
          1.338466657496473
        ]
      }
    },
    {
      "type": "Feature",
      "properties": {
        "norad_id": 29079,
        "name": "EROS B",
        "group": "resource",
        "lat": -56.99267173423786,
        "lon": 127.95448320136946,
        "alt_km": 356.2731410492943,
        "timestamp": "2025-12-25T07:00:33.699085+00:00",
        "meta_object_name": "EROS B",
        "meta_object_id": "2006-014A",
        "meta_epoch": "2025-12-24T22:05:23.184672",
        "meta_mean_motion": 15.722482,
        "meta_eccentricity": 0.00043482,
        "meta_inclination": 97.3452,
        "meta_ra_of_asc_node": 116.1087,
        "meta_arg_of_pericenter": 312.7271,
        "meta_mean_anomaly": 47.3626,
        "meta_ephemeris_type": 0,
        "meta_classification_type": "U",
        "meta_norad_cat_id": 29079,
        "meta_element_set_no": 999,
        "meta_rev_at_epoch": 9271,
        "meta_bstar": 0.0014950554,
        "meta_mean_motion_dot": 0.00201373,
        "meta_mean_motion_ddot": 0,
        "tle_line1": "1 29079U 06014A   25358.92040723  .00201373  00000+0  14951-2 0  9995",
        "tle_line2": "2 29079  97.3452 116.1087 0004348 312.7271  47.3626 15.72248200 92713"
      },
      "geometry": {
        "type": "Point",
        "coordinates": [
          127.95448320136946,
          -56.99267173423786
        ]
      }
    },
    {
      "type": "Feature",
      "properties": {
        "norad_id": 29228,
        "name": "RESURS-DK 1",
        "group": "resource",
        "lat": 36.37358977312599,
        "lon": -126.22028598249369,
        "alt_km": 527.6288995351115,
        "timestamp": "2025-12-25T07:00:33.699096+00:00",
        "meta_object_name": "RESURS-DK 1",
        "meta_object_id": "2006-021A",
        "meta_epoch": "2025-12-24T14:30:47.970432",
        "meta_mean_motion": 15.12224408,
        "meta_eccentricity": 0.00068986,
        "meta_inclination": 69.9337,
        "meta_ra_of_asc_node": 71.174,
        "meta_arg_of_pericenter": 248.2576,
        "meta_mean_anomaly": 111.7856,
        "meta_ephemeris_type": 0,
        "meta_classification_type": "U",
        "meta_norad_cat_id": 29228,
        "meta_element_set_no": 999,
        "meta_rev_at_epoch": 7617,
        "meta_bstar": 0.00017407091,
        "meta_mean_motion_dot": 2.909e-05,
        "meta_mean_motion_ddot": 0,
        "tle_line1": "1 29228U 06021A   25358.60472188  .00002909  00000+0  17407-3 0  9992",
        "tle_line2": "2 29228  69.9337  71.1740 0006898 248.2576 111.7856 15.12224408 76176"
      },
      "geometry": {
        "type": "Point",
        "coordinates": [
          -126.22028598249369,
          36.37358977312599
        ]
      }
    }
  ]
}